NORAD_CAT_ID,OBJECT_NAME,OBJECT_TYPE,EPOCH,MEAN_MOTION,ECCENTRICITY,INCLINATION,RA_OF_ASC_NODE,ARG_OF_PERICENTER,MEAN_ANOMALY,BSTAR,MEAN_MOTION_DOT,MEAN_MOTION_DDOT,TLE_LINE0,TLE_LINE1,TLE_LINE2,SEMIMAJOR_AXIS,PERIOD,APOGEE,PERIGEE,DECAYED
52289.0,STARLINK-3751,PAYLOAD,2022-07-03 14:00:01,15.29040942,0.0001403,53.2175,18.5545,62.3249,218.4984,-0.027135,-0.00715471,0.0,0 STARLINK-3751,1 52289U 22041AE  22184.58334491 -.00715471  00000-0 -27135-1 0  9995,2 52289  53.2175  18.5545 0001403  62.3249 218.4984 15.29040942 12648,6856.815,94.177,479.642,477.718,0.0
52289.0,STARLINK-3751,PAYLOAD,2022-07-03 22:00:00,15.285310199999998,0.0001476,53.2175,17.0111,53.2602,263.1212,-0.027585,-0.00724236,0.0,0 STARLINK-3751,1 52289U 22041AE  22184.91667824 -.00724236  00000-0 -27585-1 0  9999,2 52289  53.2175  17.0111 0001476  53.2602 263.1212 15.28531020  1306,6858.34,94.208,481.217,479.193,0.0
52289.0,STARLINK-3751,PAYLOAD,2022-07-04 14:00:01,15.27511109,0.00014,53.2175,13.9222,54.6306,331.0318,-0.028464,-0.00724264,0.0,0 STARLINK-3751,1 52289U 22041AE  22185.58334491 -.00724264  00000-0 -28464-1 0  9992,2 52289  53.2175  13.9222 0001400  54.6306 331.0318 15.27511109  1304,6861.392,94.271,484.218,482.297,0.0
52289.0,STARLINK-3751,PAYLOAD,2022-07-04 22:00:00,15.27000742,0.0001536,53.2176,12.3821,47.968,11.4146,-0.028907,-0.00724177,0.0,0 STARLINK-3751,1 52289U 22041AE  22185.91667824 -.00724177  00000-0 -28907-1 0  9993,2 52289  53.2176  12.3821 0001536  47.9680  11.4146 15.27000742  1307,6862.920999999999,94.303,485.84,483.732,0.0
52289.0,STARLINK-3751,PAYLOAD,2022-07-05 14:00:01,15.25980397,0.0001602,53.2176,9.3004,50.1479,74.839,-0.029777,-0.00723249,0.0,0 STARLINK-3751,1 52289U 22041AE  22186.58334491 -.00723249  00000-0 -29777-1 0  9993,2 52289  53.2176   9.3004 0001602  50.1479  74.8390 15.25980397 12950,6865.98,94.366,488.945,486.745,0.0
52289.0,STARLINK-3751,PAYLOAD,2022-07-05 22:00:00,15.25468428,0.0001557,53.2176,7.7639999999999985,54.8165,102.0525,-0.030091,-0.00719867,0.0,0 STARLINK-3751,1 52289U 22041AE  22186.91667824 -.00719867  00000-0 -30091-1 0  9991,2 52289  53.2176   7.7640 0001557  54.8165 102.0525 15.25468428  1307,6867.516,94.397,490.45,488.312,0.0
52289.0,STARLINK-3751,PAYLOAD,2022-07-06 14:00:01,15.24450016,0.0001593,53.2177,4.6898,53.8379,164.9578,-0.031135,-0.0072217,0.0,0 STARLINK-3751,1 52289U 22041AE  22187.58334491 -.00722170  00000-0 -31135-1 0  9997,2 52289  53.2177   4.6898 0001593  53.8379 164.9578 15.24450016 13104,6870.574000000001,94.46,493.534,491.345,0.0
52289.0,STARLINK-3751,PAYLOAD,2022-07-06 19:21:01,15.25419845,0.0001436,53.2156,3.6914,24.1468,335.9598,-0.0080959,-0.00202019,0.0,0 STARLINK-3751,1 52289U 22041AE  22187.80627224 -.00202019  00000-0 -80959-2 0  9995,2 52289  53.2156   3.6914 0001436  24.1468 335.9598 15.25419845 11910,6867.6619999999975,94.4,490.513,488.541,0.0
52289.0,STARLINK-3751,PAYLOAD,2022-07-07 03:13:15,15.25020166,0.000236,53.2156,2.1836,39.2327,320.8843,-0.0095769,-0.00235042,0.0,0 STARLINK-3751,1 52289U 22041AE  22188.13420468 -.00235042  00000-0 -95769-2 0  9990,2 52289  53.2156   2.1836 0002360  39.2327 320.8843 15.25020166 13186,6868.861999999999,94.425,492.348,489.106,0.0
52289.0,STARLINK-3751,PAYLOAD,2022-07-07 14:00:01,15.22920939,0.0001462,53.2176,0.0896,55.1614,251.9277,-0.032649,-0.00723332,0.0,0 STARLINK-3751,1 52289U 22041AE  22188.58334491 -.00723332  00000-0 -32649-1 0  9990,2 52289  53.2176   0.0896 0001462  55.1614 251.9277 15.22920939 13256,6875.1730000000025,94.555,498.043,496.032,0.0
52289.0,STARLINK-3751,PAYLOAD,2022-07-07 22:00:00,15.22409297,0.0001495,53.2175,358.5601,50.1615,285.133,-0.032995,-0.00720189,0.0,0 STARLINK-3751,1 52289U 22041AE  22188.91667824 -.00720189  00000-0 -32995-1 0  9997,2 52289  53.2175 358.5601 0001495  50.1615 285.1330 15.22409297  1303,6876.7130000000025,94.587,499.606,497.55,0.0
52289.0,STARLINK-3751,PAYLOAD,2022-07-08 14:00:01,15.21391899,0.0001535,53.2177,355.5004,47.5673,342.3003,-0.03425,-0.00725061,0.0,0 STARLINK-3751,1 52289U 22041AE  22189.58334491 -.00725061  00000-0 -34250-1 0  9992,2 52289  53.2177 355.5004 0001535  47.5673 342.3003 15.21391899  1308,6879.778,94.65,502.699,500.587,0.0
52289.0,STARLINK-3751,PAYLOAD,2022-07-08 22:00:01,15.2087892,0.0001484,53.2174,353.9742,50.4178,5.8808,-0.034493,-0.00719631,0.0,0 STARLINK-3751,1 52289U 22041AE  22189.91668981 -.00719631  00000-0 -34493-1 0  9998,2 52289  53.2174 353.9742 0001484  50.4178   5.8808 15.20878920 13459,6881.325,94.682,504.211,502.169,0.0
52289.0,STARLINK-3751,PAYLOAD,2022-07-09 14:00:01,15.19861363,0.0001624,53.2175,350.9218,48.1844,58.9471,-0.035784,-0.0072429,0.0,0 STARLINK-3751,1 52289U 22041AE  22190.58334491 -.00724290  00000-0 -35784-1 0  9990,2 52289  53.2175 350.9218 0001624  48.1844  58.9471 15.19861363  1302,6884.396,94.745,507.379,505.143,0.0
52289.0,STARLINK-3751,PAYLOAD,2022-07-09 20:00:01,15.19478507,0.0001355,53.2176,349.78,62.431,333.154,-0.036141,-0.0072341,0.0,0 STARLINK-3751,1 52289U 22041AE  22190.83334491 -.00723410  00000-0 -36141-1 0  9999,2 52289  53.2176 349.7800 0001355  62.4310 333.1540 15.19478507  1303,6885.553000000001,94.769,508.351,506.485,0.0
52289.0,STARLINK-3751,PAYLOAD,2022-07-10 14:00:01,15.18330028,0.0001727,53.2176,346.35400000000016,47.7829,131.0975,-0.037275,-0.00721754,0.0,0 STARLINK-3751,1 52289U 22041AE  22191.58334491 -.00721754  00000-0 -37275-1 0  9990,2 52289  53.2176 346.3540 0001727  47.7829 131.0975 15.18330028  1302,6889.024,94.841,512.0790000000002,509.7,0.0
52289.0,STARLINK-3751,PAYLOAD,2022-07-10 22:00:00,15.17818698,0.0001493,53.2173,344.8347,60.9496,140.6212,-0.03766,-0.00718684,0.0,0 STARLINK-3751,1 52289U 22041AE  22191.91667824 -.00718684  00000-0 -37660-1 0  9992,2 52289  53.2173 344.8347 0001493  60.9496 140.6212 15.17818698 13760,6890.571,94.873,513.465,511.408,0.0
52289.0,STARLINK-3751,PAYLOAD,2022-07-11 14:00:01,15.16799467,0.0001615,53.2175,341.7969,53.3236,191.7903,-0.038874,-0.0072027,0.0,0 STARLINK-3751,1 52289U 22041AE  22192.58334491 -.00720270  00000-0 -38874-1 0  9999,2 52289  53.2175 341.7969 0001615  53.3236 191.7903 15.16799467  1304,6893.658,94.937,516.636,514.41,0.0
52289.0,STARLINK-3751,PAYLOAD,2022-07-11 22:00:00,15.16290537,0.0001458,53.2172,340.2809,59.5344,206.4307,-0.039512,-0.00721376,0.0,0 STARLINK-3751,1 52289U 22041AE  22192.91667824 -.00721376  00000-0 -39512-1 0  9993,2 52289  53.2172 340.2809 0001458  59.5344 206.4307 15.16290537  1307,6895.2,94.969,518.071,516.06,0.0
52289.0,STARLINK-3751,PAYLOAD,2022-07-12 14:00:01,15.15269922,0.0001624,53.2173,337.2504,47.9687,257.8631,-0.040634,-0.00720606,0.0,0 STARLINK-3751,1 52289U 22041AE  22193.58334491 -.00720606  00000-0 -40634-1 0  9990,2 52289  53.2173 337.2504 0001624  47.9687 257.8631 15.15269922  1305,6898.295999999999,95.033,521.2819999999998,519.0409999999998,0.0
52289.0,STARLINK-3751,PAYLOAD,2022-07-12 22:00:00,15.14761757,0.0001394,53.2171,335.7378,57.9456,266.8991,-0.041385,-0.00723173,0.0,0 STARLINK-3751,1 52289U 22041AE  22193.91667824 -.00723173  00000-0 -41385-1 0  9992,2 52289  53.2171 335.7378 0001394  57.9456 266.8991 15.14761757 14062,6899.839,95.064,522.6659999999998,520.742,0.0
52289.0,STARLINK-3751,PAYLOAD,2022-07-13 14:00:01,15.13740708,0.0001696,53.2173,332.7145,42.0659,318.9689,-0.042509,-0.00721762,0.0,0 STARLINK-3751,1 52289U 22041AE  22194.58334491 -.00721762  00000-0 -42509-1 0  9998,2 52289  53.2173 332.7145 0001696  42.0659 318.9689 15.13740708  1317,6902.941,95.129,525.977,523.636,0.0
52289.0,STARLINK-3751,PAYLOAD,2022-07-13 22:00:00,15.13231672,0.0001438,53.2171,331.2054,52.8117,325.398,-0.0432,-0.00722918,0.0,0 STARLINK-3751,1 52289U 22041AE  22194.91667824 -.00722918  00000-0 -43200-1 0  9997,2 52289  53.2171 331.2054 0001438  52.8117 325.3980 15.13231672  1300,6904.489000000001,95.161,527.347,525.361,0.0
52289.0,STARLINK-3751,PAYLOAD,2022-07-14 06:00:00,15.1271836,0.0001576999999999,53.2172,329.6952,44.9971,349.778,-0.043543,-0.00718539,0.0,0 STARLINK-3751,1 52289U 22041AE  22195.25001157 -.00718539  00000-0 -43543-1 0  9990,2 52289  53.2172 329.6952 0001577  44.9971 349.7780 15.12718360 14263,6906.051,95.193,529.005,526.827,0.0
52289.0,STARLINK-3751,PAYLOAD,2022-07-14 14:00:01,15.12210919,0.0001884,53.2173,328.1894,36.744,13.9789,-0.044408,-0.00722218,0.0,0 STARLINK-3751,1 52289U 22041AE  22195.58334491 -.00722218  00000-0 -44408-1 0  9996,2 52289  53.2173 328.1894 0001884  36.7440  13.9789 15.12210919  1301,6907.596,95.225,530.762,528.16,0.0
52289.0,STARLINK-3751,PAYLOAD,2022-07-14 22:00:00,15.11700951,0.0001568,53.2171,326.6836,48.4335,17.6264,-0.045012,-0.0072167,0.0,0 STARLINK-3751,1 52289U 22041AE  22195.91667824 -.00721670  00000-0 -45012-1 0  9995,2 52289  53.2171 326.6836 0001568  48.4335  17.6264 15.11700951  1308,6909.149,95.257,532.0980000000002,529.931,0.0
52289.0,STARLINK-3751,PAYLOAD,2022-07-15 06:00:00,15.11189313,0.0001684,53.2172,325.1771,43.4781,37.3081,-0.045556,-0.00720159,0.0,0 STARLINK-3751,1 52289U 22041AE  22196.25001157 -.00720159  00000-0 -45556-1 0  9998,2 52289  53.2172 325.1771 0001684  43.4781  37.3081 15.11189313 14426,6910.709,95.289,533.738,531.41,0.0
52289.0,STARLINK-3751,PAYLOAD,2022-07-15 14:00:01,15.10680611,0.0001834,53.2173,323.6749,41.4841,53.4121,-0.046315,-0.00721763,0.0,0 STARLINK-3751,1 52289U 22041AE  22196.58334491 -.00721763  00000-0 -46315-1 0  9990,2 52289  53.2173 323.6749 0001834  41.4841  53.4121 15.10680611  1300,6912.26,95.321,535.393,532.857,0.0
52289.0,STARLINK-3751,PAYLOAD,2022-07-15 22:00:00,15.10170357,0.0001738,53.2171,322.1725,44.5934,63.8015,-0.046895,-0.00720597,0.0,0 STARLINK-3751,1 52289U 22041AE  22196.91667824 -.00720597  00000-0 -46895-1 0  9993,2 52289  53.2171 322.1725 0001738  44.5934  63.8015 15.10170357  1304,6913.816999999999,95.353,536.884,534.48,0.0
